{
  "norad_id": 63564,
  "name": "STARLINK-32928",
  "history": [
    {
      "epoch": "2026-03-28T16:12:02.817504Z",
      "apogee_km": 483.8446976897967,
      "perigee_km": 481.98137372109886,
      "latitude_deg": 3.827775847450904e-05,
      "longitude_deg": 94.07882287955312,
      "height_km": 482.7565872433622,
      "semi_major_axis_km": 6861.050035705447,
      "eccentricity": 0.00013579,
      "inclination_deg": 43.0013,
      "raan_deg": 163.1826,
      "arg_perigee_deg": 265.8908,
      "mean_anomaly_deg": 94.1789,
      "mean_motion_rev_day": 15.2762544
    },
    {
      "epoch": "2026-03-29T04:45:18.798336Z",
      "apogee_km": 483.62049791555637,
      "perigee_km": 482.4664473600578,
      "latitude_deg": -4.452397882816061e-05,
      "longitude_deg": -97.70744473895017,
      "height_km": 482.5836337849124,
      "semi_major_axis_km": 6861.180472637807,
      "eccentricity": 8.41e-05,
      "inclination_deg": 43.0017,
      "raan_deg": 160.2286,
      "arg_perigee_deg": 294.1653,
      "mean_anomaly_deg": 65.911,
      "mean_motion_rev_day": 15.27581878
    }
  ]
}